{
  "type": "FeatureCollection",
  "features": [
    {
      "type": "Feature",
      "properties": {
        "norad_id": 41026,
        "name": "YAOGAN-28",
        "group": "resource",
        "lat": -9.180958792265693,
        "lon": -42.490727479912316,
        "alt_km": 499.1129098913043,
        "timestamp": "2025-12-27T07:26:24.878317+00:00",
        "meta_object_name": "YAOGAN-28",
        "meta_object_id": "2015-064A",
        "meta_epoch": "2025-12-26T22:44:18.154176",
        "meta_mean_motion": 15.24580395,
        "meta_eccentricity": 0.00126373,
        "meta_inclination": 97.2815,
        "meta_ra_of_asc_node": 138.341,
        "meta_arg_of_pericenter": 81.0065,
        "meta_mean_anomaly": 279.2603,
        "meta_ephemeris_type": 0,
        "meta_classification_type": "U",
        "meta_norad_cat_id": 41026,
        "meta_element_set_no": 999,
        "meta_rev_at_epoch": 56441,
        "meta_bstar": 0.00038532163,
        "meta_mean_motion_dot": 9.45e-05,
        "meta_mean_motion_ddot": 0,
        "tle_line1": "1 41026U 15064A   25360.94743234  .00009450  00000+0  38532-3 0  9992",
        "tle_line2": "2 41026  97.2815 138.3410 0012637  81.0065 279.2603 15.24580395564417"
      },
      "geometry": {
        "type": "Point",
        "coordinates": [
          -42.490727479912316,
          -9.180958792265693
        ]
      }
    },
    {
      "type": "Feature",
      "properties": {
        "norad_id": 41038,
        "name": "YAOGAN-29",
        "group": "resource",
        "lat": -81.86552425769567,
        "lon": 123.94640009718532,
        "alt_km": 627.7947551844227,
        "timestamp": "2025-12-27T07:26:24.878328+00:00",
        "meta_object_name": "YAOGAN-29",
        "meta_object_id": "2015-069A",
        "meta_epoch": "2025-12-26T23:45:16.231680",
        "meta_mean_motion": 14.82897791,
        "meta_eccentricity": 0.00010154,
        "meta_inclination": 98.0209,
        "meta_ra_of_asc_node": 24.2061,
        "meta_arg_of_pericenter": 159.0544,
        "meta_mean_anomaly": 201.0711,
        "meta_ephemeris_type": 0,
        "meta_classification_type": "U",
        "meta_norad_cat_id": 41038,
        "meta_element_set_no": 999,
        "meta_rev_at_epoch": 54510,
        "meta_bstar": 4.2178401e-05,
        "meta_mean_motion_dot": 2.88e-06,
        "meta_mean_motion_ddot": 0,
        "tle_line1": "1 41038U 15069A   25360.98977120  .00000288  00000+0  42178-4 0  9999",
        "tle_line2": "2 41038  98.0209  24.2061 0001015 159.0544 201.0711 14.82897791545109"
      },
      "geometry": {
        "type": "Point",
        "coordinates": [
          123.94640009718532,
          -81.86552425769567
        ]
      }
    },
    {
      "type": "Feature",
      "properties": {
        "norad_id": 41167,
        "name": "KENT RIDGE 1",
        "group": "resource",
        "lat": -14.788173944070314,
        "lon": 22.142562163715773,
        "alt_km": 496.36148189633786,
        "timestamp": "2025-12-27T07:26:24.878338+00:00",
        "meta_object_name": "KENT RIDGE 1",
        "meta_object_id": "2015-077B",
        "meta_epoch": "2025-12-26T22:21:21.398688",
        "meta_mean_motion": 15.21743128,
        "meta_eccentricity": 0.00085273,
        "meta_inclination": 14.9792,
        "meta_ra_of_asc_node": 105.8239,
        "meta_arg_of_pericenter": 331.0402,
        "meta_mean_anomaly": 28.9446,
        "meta_ephemeris_type": 0,
        "meta_classification_type": "U",
        "meta_norad_cat_id": 41167,
        "meta_element_set_no": 999,
        "meta_rev_at_epoch": 55480,
        "meta_bstar": 0.00017735093,
        "meta_mean_motion_dot": 4.899e-05,
        "meta_mean_motion_ddot": 0,
        "tle_line1": "1 41167U 15077B   25360.93149767  .00004899  00000+0  17735-3 0  9996",
        "tle_line2": "2 41167  14.9792 105.8239 0008527 331.0402  28.9446 15.21743128554805"
      },
      "geometry": {
        "type": "Point",
        "coordinates": [
          22.142562163715773,
          -14.788173944070314
        ]
      }
    },
    {
      "type": "Feature",
      "properties": {
        "norad_id": 41194,
        "name": "GAOFEN-4",
        "group": "resource",
        "lat": -0.17474944504364148,
        "lon": -46.64658776034849,
        "alt_km": 35795.56597491975,
        "timestamp": "2025-12-27T07:26:24.878350+00:00",
        "meta_object_name": "GAOFEN-4",
        "meta_object_id": "2015-083A",
        "meta_epoch": "2025-12-26T22:05:51.468576",
        "meta_mean_motion": 1.00268941,
        "meta_eccentricity": 0.00028182,
        "meta_inclination": 0.2043,
        "meta_ra_of_asc_node": 82.0154,
        "meta_arg_of_pericenter": 94.7238,
        "meta_mean_anomaly": 356.0806,
        "meta_ephemeris_type": 0,
        "meta_classification_type": "U",
        "meta_norad_cat_id": 41194,
        "meta_element_set_no": 999,
        "meta_rev_at_epoch": 3680,
        "meta_bstar": 0,
        "meta_mean_motion_dot": -3.12e-06,
        "meta_mean_motion_ddot": 0,
        "tle_line1": "1 41194U 15083A   25360.92073459 -.00000312  00000+0  00000+0 0  9996",
        "tle_line2": "2 41194   0.2043  82.0154 0002818  94.7238 356.0806  1.00268941 36808"
      },
      "geometry": {
        "type": "Point",
        "coordinates": [
          -46.64658776034849,
          -0.17474944504364148
        ]
      }
    },
    {
      "type": "Feature",
      "properties": {
        "norad_id": 41240,
        "name": "JASON-3",
        "group": "resource",
        "lat": 13.970142243712564,
        "lon": -59.15856303912276,
        "alt_km": 1312.5351501688574,
        "timestamp": "2025-12-27T07:26:24.878361+00:00",
        "meta_object_name": "JASON-3",
        "meta_object_id": "2016-002A",
        "meta_epoch": "2025-12-26T21:16:02.332704",
        "meta_mean_motion": 12.87627194,
        "meta_eccentricity": 0.00073336,
        "meta_inclination": 66.0408,
        "meta_ra_of_asc_node": 128.0829,
        "meta_arg_of_pericenter": 271.6823,
        "meta_mean_anomaly": 88.3355,
        "meta_ephemeris_type": 0,
        "meta_classification_type": "U",
        "meta_norad_cat_id": 41240,
        "meta_element_set_no": 999,
        "meta_rev_at_epoch": 46506,
        "meta_bstar": 0.00017905709,
        "meta_mean_motion_dot": -1.7e-07,
        "meta_mean_motion_ddot": 0,
        "tle_line1": "1 41240U 16002A   25360.88613811 -.00000017  00000+0  17906-3 0  9996",
        "tle_line2": "2 41240  66.0408 128.0829 0007333 271.6823  88.3355 12.87627194465062"
      },
      "geometry": {
        "type": "Point",
        "coordinates": [
          -59.15856303912276,
          13.970142243712564
        ]
      }
    },
    {
      "type": "Feature",
      "properties": {
        "norad_id": 41335,
        "name": "SENTINEL-3A",
        "group": "resource",
        "lat": -80.88673135150735,
        "lon": 174.91009840394221,
        "alt_km": 810.6196734586874,
        "timestamp": "2025-12-27T07:26:24.878372+00:00",
        "meta_object_name": "SENTINEL-3A",
        "meta_object_id": "2016-011A",
        "meta_epoch": "2025-12-26T23:27:35.088480",
        "meta_mean_motion": 14.2673624,
        "meta_eccentricity": 8.877e-05,
        "meta_inclination": 98.6296,
        "meta_ra_of_asc_node": 65.7912,
        "meta_arg_of_pericenter": 97.9697,
        "meta_mean_anomaly": 262.1584,
        "meta_ephemeris_type": 0,
        "meta_classification_type": "U",
        "meta_norad_cat_id": 41335,
        "meta_element_set_no": 999,
        "meta_rev_at_epoch": 51350,
        "meta_bstar": 8.4117411e-05,
        "meta_mean_motion_dot": 1.6e-06,
        "meta_mean_motion_ddot": 0,
        "tle_line1": "1 41335U 16011A   25360.97748945  .00000160  00000+0  84117-4 0  9995",
        "tle_line2": "2 41335  98.6296  65.7912 0000887  97.9697 262.1584 14.26736240513505"
      },
      "geometry": {
        "type": "Point",
        "coordinates": [
          174.91009840394221,
          -80.88673135150735
        ]
      }
    },
    {
      "type": "Feature",
      "properties": {
        "norad_id": 41556,
        "name": "ZIYUAN 3-02 (ZY 3-02)",
        "group": "resource",
        "lat": -70.0185108480572,
        "lon": 96.18211045232303,
        "alt_km": 510.237020589474,
        "timestamp": "2025-12-27T07:26:24.878383+00:00",
        "meta_object_name": "ZIYUAN 3-02 (ZY 3-02)",
        "meta_object_id": "2016-033A",
        "meta_epoch": "2025-12-26T23:51:39.103776",
        "meta_mean_motion": 15.21259899,
        "meta_eccentricity": 0.00115889,
        "meta_inclination": 97.4022,
        "meta_ra_of_asc_node": 74.9218,
        "meta_arg_of_pericenter": 193.1405,
        "meta_mean_anomaly": 166.9531,
        "meta_ephemeris_type": 0,
        "meta_classification_type": "U",
        "meta_norad_cat_id": 41556,
        "meta_element_set_no": 999,
        "meta_rev_at_epoch": 53180,
        "meta_bstar": 0.00036551845,
        "meta_mean_motion_dot": 8.114e-05,
        "meta_mean_motion_ddot": 0,
        "tle_line1": "1 41556U 16033A   25360.99420259  .00008114  00000+0  36552-3 0  9997",
        "tle_line2": "2 41556  97.4022  74.9218 0011588 193.1405 166.9531 15.21259899531803"
      },
      "geometry": {
        "type": "Point",
        "coordinates": [
          96.18211045232303,
          -70.0185108480572
        ]
      }
    }
  ]
}